XRISM                   
1 57800U 23137A   24131.78872870  .00012294  00000+0  94007-3 0  9994
2 57800  31.0029 250.6017 0009673 196.4184 163.6139 15.00713316 36988
